CCSDS_OMM_VERS = 2.0
CREATION_DATE  = 
ORIGINATOR     = 

OBJECT_NAME    = UNKNOWN
OBJECT_ID      = 
CENTER_NAME    = EARTH
REF_FRAME      = TEME
TIME_SYSTEM    = UTC
MEAN_ELEMENT_THEORY = SGP/SGP4

EPOCH          = 2026-03-17T08:51:53.293248
MEAN_MOTION    = 12.81405994
ECCENTRICITY   = .0145223
INCLINATION    = 56.4331
RA_OF_ASC_NODE = 305.4817
ARG_OF_PERICENTER = 269.3194
MEAN_ANOMALY   = 89.1090

EPHEMERIS_TYPE = 0
CLASSIFICATION_TYPE = U
NORAD_CAT_ID   = 81605
ELEMENT_SET_NO = 999
REV_AT_EPOCH   = 19833
BSTAR          = -.33993E-2
MEAN_MOTION_DOT = -.929E-5
MEAN_MOTION_DDOT = 0

CCSDS_OMM_VERS = 2.0
CREATION_DATE  = 
ORIGINATOR     = 

OBJECT_NAME    = UNKNOWN
OBJECT_ID      = 
CENTER_NAME    = EARTH
REF_FRAME      = TEME
TIME_SYSTEM    = UTC
MEAN_ELEMENT_THEORY = SGP/SGP4

EPOCH          = 2026-03-16T10:42:56.822400
MEAN_MOTION    = 12.38268946
ECCENTRICITY   = .0356281
INCLINATION    = 101.8519
RA_OF_ASC_NODE = 73.4821
ARG_OF_PERICENTER = 334.5803
MEAN_ANOMALY   = 23.8105

EPHEMERIS_TYPE = 0
CLASSIFICATION_TYPE = U
NORAD_CAT_ID   = 81614
ELEMENT_SET_NO = 999
REV_AT_EPOCH   = 54957
BSTAR          = .33317E-1
MEAN_MOTION_DOT = .5373E-4
MEAN_MOTION_DDOT = 0

CCSDS_OMM_VERS = 2.0
CREATION_DATE  = 
ORIGINATOR     = 

OBJECT_NAME    = UNKNOWN
OBJECT_ID      = 
CENTER_NAME    = EARTH
REF_FRAME      = TEME
TIME_SYSTEM    = UTC
MEAN_ELEMENT_THEORY = SGP/SGP4

EPOCH          = 2026-03-18T14:27:02.135520
MEAN_MOTION    = 13.34514853
ECCENTRICITY   = .0766191
INCLINATION    = 65.8285
RA_OF_ASC_NODE = 198.6804
ARG_OF_PERICENTER = 91.6924
MEAN_ANOMALY   = 277.1948

EPHEMERIS_TYPE = 0
CLASSIFICATION_TYPE = U
NORAD_CAT_ID   = 81615
ELEMENT_SET_NO = 999
REV_AT_EPOCH   = 59565
BSTAR          = .5481E-3
MEAN_MOTION_DOT = .1455E-4
MEAN_MOTION_DDOT = 0

CCSDS_OMM_VERS = 2.0
CREATION_DATE  = 
ORIGINATOR     = 

OBJECT_NAME    = UNKNOWN
OBJECT_ID      = 
CENTER_NAME    = EARTH
REF_FRAME      = TEME
TIME_SYSTEM    = UTC
MEAN_ELEMENT_THEORY = SGP/SGP4

EPOCH          = 2026-03-16T21:36:24.720768
MEAN_MOTION    = 12.57611972
ECCENTRICITY   = .0031395
INCLINATION    = 101.2692
RA_OF_ASC_NODE = 251.2784
ARG_OF_PERICENTER = 56.3330
MEAN_ANOMALY   = 304.0734

EPHEMERIS_TYPE = 0
CLASSIFICATION_TYPE = U
NORAD_CAT_ID   = 81617
ELEMENT_SET_NO = 999
REV_AT_EPOCH   = 56494
BSTAR          = .2353E-2
MEAN_MOTION_DOT = .354E-5
MEAN_MOTION_DDOT = 0

CCSDS_OMM_VERS = 2.0
CREATION_DATE  = 
ORIGINATOR     = 

OBJECT_NAME    = UNKNOWN
OBJECT_ID      = 
CENTER_NAME    = EARTH
REF_FRAME      = TEME
TIME_SYSTEM    = UTC
MEAN_ELEMENT_THEORY = SGP/SGP4

EPOCH          = 2026-02-26T01:53:09.671424
MEAN_MOTION    = 14.72174479
ECCENTRICITY   = .0063505
INCLINATION    = 66.9770
RA_OF_ASC_NODE = 318.5702
ARG_OF_PERICENTER = 176.9023
MEAN_ANOMALY   = 183.2505

EPHEMERIS_TYPE = 0
CLASSIFICATION_TYPE = U
NORAD_CAT_ID   = 81624
ELEMENT_SET_NO = 999
REV_AT_EPOCH   = 65079
BSTAR          = .72056E-3
MEAN_MOTION_DOT = .4588E-4
MEAN_MOTION_DDOT = 0

CCSDS_OMM_VERS = 2.0
CREATION_DATE  = 
ORIGINATOR     = 

OBJECT_NAME    = UNKNOWN
OBJECT_ID      = 
CENTER_NAME    = EARTH
REF_FRAME      = TEME
TIME_SYSTEM    = UTC
MEAN_ELEMENT_THEORY = SGP/SGP4

EPOCH          = 2026-03-16T21:07:24.585024
MEAN_MOTION    = 12.57310794
ECCENTRICITY   = .097977
INCLINATION    = 65.8249
RA_OF_ASC_NODE = 299.4762
ARG_OF_PERICENTER = 39.2134
MEAN_ANOMALY   = 327.5840

EPHEMERIS_TYPE = 0
CLASSIFICATION_TYPE = U
NORAD_CAT_ID   = 81640
ELEMENT_SET_NO = 999
REV_AT_EPOCH   = 52191
BSTAR          = .35412E-3
MEAN_MOTION_DOT = .33E-5
MEAN_MOTION_DDOT = 0

CCSDS_OMM_VERS = 2.0
CREATION_DATE  = 
ORIGINATOR     = 

OBJECT_NAME    = UNKNOWN
OBJECT_ID      = 
CENTER_NAME    = EARTH
REF_FRAME      = TEME
TIME_SYSTEM    = UTC
MEAN_ELEMENT_THEORY = SGP/SGP4

EPOCH          = 2026-03-16T14:24:03.055104
MEAN_MOTION    = 13.44511074
ECCENTRICITY   = .0363675
INCLINATION    = 102.1445
RA_OF_ASC_NODE = 348.5584
ARG_OF_PERICENTER = 149.7356
MEAN_ANOMALY   = 332.7157

EPHEMERIS_TYPE = 0
CLASSIFICATION_TYPE = U
NORAD_CAT_ID   = 81652
ELEMENT_SET_NO = 999
REV_AT_EPOCH   = 59126
BSTAR          = .7007E-3
MEAN_MOTION_DOT = .549E-5
MEAN_MOTION_DDOT = 0

CCSDS_OMM_VERS = 2.0
CREATION_DATE  = 
ORIGINATOR     = 

OBJECT_NAME    = UNKNOWN
OBJECT_ID      = 
CENTER_NAME    = EARTH
REF_FRAME      = TEME
TIME_SYSTEM    = UTC
MEAN_ELEMENT_THEORY = SGP/SGP4

EPOCH          = 2026-03-18T16:09:28.991808
MEAN_MOTION    = 14.48600245
ECCENTRICITY   = .0014312
INCLINATION    = 74.0401
RA_OF_ASC_NODE = 216.9452
ARG_OF_PERICENTER = 127.1095
MEAN_ANOMALY   = 233.1375

EPHEMERIS_TYPE = 0
CLASSIFICATION_TYPE = U
NORAD_CAT_ID   = 81667
ELEMENT_SET_NO = 999
REV_AT_EPOCH   = 47053
BSTAR          = .60286E-3
MEAN_MOTION_DOT = .2244E-4
MEAN_MOTION_DDOT = 0

CCSDS_OMM_VERS = 2.0
CREATION_DATE  = 
ORIGINATOR     = 

OBJECT_NAME    = UNKNOWN
OBJECT_ID      = 
CENTER_NAME    = EARTH
REF_FRAME      = TEME
TIME_SYSTEM    = UTC
MEAN_ELEMENT_THEORY = SGP/SGP4

EPOCH          = 2026-03-18T13:09:48.074112
MEAN_MOTION    = 14.10176281
ECCENTRICITY   = .0022734
INCLINATION    = 66.8211
RA_OF_ASC_NODE = 122.9693
ARG_OF_PERICENTER = 169.7562
MEAN_ANOMALY   = 339.7280

EPHEMERIS_TYPE = 0
CLASSIFICATION_TYPE = U
NORAD_CAT_ID   = 81674
ELEMENT_SET_NO = 999
REV_AT_EPOCH   = 62722
BSTAR          = .64002E-3
MEAN_MOTION_DOT = .1056E-4
MEAN_MOTION_DDOT = 0

CCSDS_OMM_VERS = 2.0
CREATION_DATE  = 
ORIGINATOR     = 

OBJECT_NAME    = UNKNOWN
OBJECT_ID      = 
CENTER_NAME    = EARTH
REF_FRAME      = TEME
TIME_SYSTEM    = UTC
MEAN_ELEMENT_THEORY = SGP/SGP4

EPOCH          = 2026-03-17T17:51:13.861152
MEAN_MOTION    = 14.58139962
ECCENTRICITY   = .0022453
INCLINATION    = 81.2177
RA_OF_ASC_NODE = 195.1252
ARG_OF_PERICENTER = 7.7973
MEAN_ANOMALY   = 352.3569

EPHEMERIS_TYPE = 0
CLASSIFICATION_TYPE = U
NORAD_CAT_ID   = 81683
ELEMENT_SET_NO = 999
REV_AT_EPOCH   = 64970
BSTAR          = .62428E-3
MEAN_MOTION_DOT = .29E-4
MEAN_MOTION_DDOT = 0

CCSDS_OMM_VERS = 2.0
CREATION_DATE  = 
ORIGINATOR     = 

OBJECT_NAME    = UNKNOWN
OBJECT_ID      = 
CENTER_NAME    = EARTH
REF_FRAME      = TEME
TIME_SYSTEM    = UTC
MEAN_ELEMENT_THEORY = SGP/SGP4

EPOCH          = 2026-03-18T14:01:45.422400
MEAN_MOTION    = 12.26090685
ECCENTRICITY   = .0378927
INCLINATION    = 101.1032
RA_OF_ASC_NODE = 133.5446
ARG_OF_PERICENTER = 260.3042
MEAN_ANOMALY   = 95.5030

EPHEMERIS_TYPE = 0
CLASSIFICATION_TYPE = U
NORAD_CAT_ID   = 81693
ELEMENT_SET_NO = 999
REV_AT_EPOCH   = 97951
BSTAR          = .10849E-1
MEAN_MOTION_DOT = .1492E-4
MEAN_MOTION_DDOT = 0

CCSDS_OMM_VERS = 2.0
CREATION_DATE  = 
ORIGINATOR     = 

OBJECT_NAME    = UNKNOWN
OBJECT_ID      = 
CENTER_NAME    = EARTH
REF_FRAME      = TEME
TIME_SYSTEM    = UTC
MEAN_ELEMENT_THEORY = SGP/SGP4

EPOCH          = 2026-03-17T13:34:27.812352
MEAN_MOTION    = 14.40905900
ECCENTRICITY   = .0002964
INCLINATION    = 71.0015
RA_OF_ASC_NODE = 179.8712
ARG_OF_PERICENTER = 49.6919
MEAN_ANOMALY   = 310.4476

EPHEMERIS_TYPE = 0
CLASSIFICATION_TYPE = U
NORAD_CAT_ID   = 81745
ELEMENT_SET_NO = 999
REV_AT_EPOCH   = 64340
BSTAR          = .59569E-3
MEAN_MOTION_DOT = .1862E-4
MEAN_MOTION_DDOT = 0

