UNKNOWN                 
1 81605U          26076.36936682 -.00000929  00000+0 -33993-2 0  9994
2 81605  56.4331 305.4817 0145223 269.3194  89.1090 12.81405994198337
UNKNOWN                 
1 81614U          26075.44649100  .00005373  00000+0  33317-1 0  9993
2 81614 101.8519  73.4821 0356281 334.5803  23.8105 12.38268946549571
UNKNOWN                 
1 81615U          26077.60210805  .00001455  00000+0  54810-3 0  9990
2 81615  65.8285 198.6804 0766191  91.6924 277.1948 13.34514853595659
UNKNOWN                 
1 81617U          26075.90028612  .00000354  00000+0  23530-2 0  9997
2 81617 101.2692 251.2784 0031395  56.3330 304.0734 12.57611972564946
UNKNOWN                 
1 81624U          26057.07858416  .00004588  00000+0  72056-3 0  9997
2 81624  66.9770 318.5702 0063505 176.9023 183.2505 14.72174479650798
UNKNOWN                 
1 81640U          26075.88014566  .00000330  00000+0  35412-3 0  9990
2 81640  65.8249 299.4762 0979770  39.2134 327.5840 12.57310794521911
UNKNOWN                 
1 81652U          26075.60003536  .00000549  00000+0  70070-3 0  9999
2 81652 102.1445 348.5584 0363675 149.7356 332.7157 13.44511074591264
UNKNOWN                 
1 81667U          26077.67325222  .00002244  00000+0  60286-3 0  9995
2 81667  74.0401 216.9452 0014312 127.1095 233.1375 14.48600245470538
UNKNOWN                 
1 81674U          26077.54847308  .00001056  00000+0  64002-3 0  9993
2 81674  66.8211 122.9693 0022734 169.7562 339.7280 14.10176281627220
UNKNOWN                 
1 81683U          26076.74391043  .00002900  00000+0  62428-3 0  9993
2 81683  81.2177 195.1252 0022453   7.7973 352.3569 14.58139962649705
UNKNOWN                 
1 81693U          26077.58455350  .00001492  00000+0  10849-1 0  9992
2 81693 101.1032 133.5446 0378927 260.3042  95.5030 12.26090685979518
UNKNOWN                 
1 81745U          26076.56559968  .00001862  00000+0  59569-3 0  9992
2 81745  71.0015 179.8712 0002964  49.6919 310.4476 14.40905900643409
